[{"OBJECT_NAME":"HST","OBJECT_ID":"1990-037B","EPOCH":"2026-03-02T08:57:46.083456","MEAN_MOTION":15.29345912,"ECCENTRICITY":0.00016383,"INCLINATION":28.47,"RA_OF_ASC_NODE":89.9045,"ARG_OF_PERICENTER":52.0942,"MEAN_ANOMALY":307.9801,"EPHEMERIS_TYPE":0,"CLASSIFICATION_TYPE":"U","NORAD_CAT_ID":20580,"ELEMENT_SET_NO":999,"REV_AT_EPOCH":77219,"BSTAR":0.0003034347,"MEAN_MOTION_DOT":9.122e-5,"MEAN_MOTION_DDOT":0},{"OBJECT_NAME":"POLAR","OBJECT_ID":"1996-013A","EPOCH":"2026-03-01T04:56:24.556128","MEAN_MOTION":1.29845822,"ECCENTRICITY":0.63607402,"INCLINATION":79.739,"RA_OF_ASC_NODE":228.285,"ARG_OF_PERICENTER":212.7396,"MEAN_ANOMALY":83.5774,"EPHEMERIS_TYPE":0,"CLASSIFICATION_TYPE":"U","NORAD_CAT_ID":23802,"ELEMENT_SET_NO":999,"REV_AT_EPOCH":14345,"BSTAR":0,"MEAN_MOTION_DOT":2.03e-6,"MEAN_MOTION_DDOT":0},{"OBJECT_NAME":"SWAS","OBJECT_ID":"1998-071A","EPOCH":"2026-03-02T15:21:58.254912","MEAN_MOTION":15.0881031,"ECCENTRICITY":0.0003362,"INCLINATION":69.8971,"RA_OF_ASC_NODE":142.1245,"ARG_OF_PERICENTER":25.2751,"MEAN_ANOMALY":334.8577,"EPHEMERIS_TYPE":0,"CLASSIFICATION_TYPE":"U","NORAD_CAT_ID":25560,"ELEMENT_SET_NO":999,"REV_AT_EPOCH":48119,"BSTAR":0.00037385,"MEAN_MOTION_DOT":5.793e-5,"MEAN_MOTION_DDOT":0},{"OBJECT_NAME":"CXO","OBJECT_ID":"1999-040B","EPOCH":"2026-03-04T14:23:47.627520","MEAN_MOTION":0.37808937,"ECCENTRICITY":0.80032862,"INCLINATION":54.4843,"RA_OF_ASC_NODE":119.7682,"ARG_OF_PERICENTER":310.7757,"MEAN_ANOMALY":0.4217,"EPHEMERIS_TYPE":0,"CLASSIFICATION_TYPE":"U","NORAD_CAT_ID":25867,"ELEMENT_SET_NO":999,"REV_AT_EPOCH":1692,"BSTAR":0,"MEAN_MOTION_DOT":8.24e-6,"MEAN_MOTION_DDOT":0},{"OBJECT_NAME":"XMM-NEWTON","OBJECT_ID":"1999-066A","EPOCH":"2026-03-02T15:24:13.123584","MEAN_MOTION":0.50131664,"ECCENTRICITY":0.47125523,"INCLINATION":65.0189,"RA_OF_ASC_NODE":284.3763,"ARG_OF_PERICENTER":66.813,"MEAN_ANOMALY":359.9781,"EPHEMERIS_TYPE":0,"CLASSIFICATION_TYPE":"U","NORAD_CAT_ID":25989,"ELEMENT_SET_NO":999,"REV_AT_EPOCH":2247,"BSTAR":0,"MEAN_MOTION_DOT":6.2e-7,"MEAN_MOTION_DDOT":0},{"OBJECT_NAME":"TERRA","OBJECT_ID":"1999-068A","EPOCH":"2026-03-02T19:23:15.487296","MEAN_MOTION":14.61006057,"ECCENTRICITY":0.0002235,"INCLINATION":97.9608,"RA_OF_ASC_NODE":115.505,"ARG_OF_PERICENTER":168.5808,"MEAN_ANOMALY":303.7174,"EPHEMERIS_TYPE":0,"CLASSIFICATION_TYPE":"U","NORAD_CAT_ID":25994,"ELEMENT_SET_NO":999,"REV_AT_EPOCH":39407,"BSTAR":0.00012082,"MEAN_MOTION_DOT":5.48e-6,"MEAN_MOTION_DDOT":0},{"OBJECT_NAME":"CLUSTER II-FM7 (SAMBA)","OBJECT_ID":"2000-041A","EPOCH":"2026-03-04T06:04:28.507872","MEAN_MOTION":0.44785609,"ECCENTRICITY":0.89087774,"INCLINATION":148.992,"RA_OF_ASC_NODE":34.5676,"ARG_OF_PERICENTER":250.6745,"MEAN_ANOMALY":359.7226,"EPHEMERIS_TYPE":0,"CLASSIFICATION_TYPE":"U","NORAD_CAT_ID":26410,"ELEMENT_SET_NO":999,"REV_AT_EPOCH":1983,"BSTAR":0,"MEAN_MOTION_DOT":3.639e-5,"MEAN_MOTION_DDOT":0},{"OBJECT_NAME":"CLUSTER II-FM8 (TANGO)","OBJECT_ID":"2000-045B","EPOCH":"2026-02-18T01:30:32.809536","MEAN_MOTION":0.44405995,"ECCENTRICITY":0.88900451,"INCLINATION":149.0711,"RA_OF_ASC_NODE":33.5376,"ARG_OF_PERICENTER":249.457,"MEAN_ANOMALY":359.4916,"EPHEMERIS_TYPE":0,"CLASSIFICATION_TYPE":"U","NORAD_CAT_ID":26464,"ELEMENT_SET_NO":999,"REV_AT_EPOCH":1976,"BSTAR":0,"MEAN_MOTION_DOT":4.776e-5,"MEAN_MOTION_DDOT":0},{"OBJECT_NAME":"ODIN","OBJECT_ID":"2001-007A","EPOCH":"2026-03-02T15:54:45.366912","MEAN_MOTION":15.57871803,"ECCENTRICITY":0.0004008,"INCLINATION":97.4088,"RA_OF_ASC_NODE":97.4234,"ARG_OF_PERICENTER":157.2018,"MEAN_ANOMALY":202.9416,"EPHEMERIS_TYPE":0,"CLASSIFICATION_TYPE":"U","NORAD_CAT_ID":26702,"ELEMENT_SET_NO":999,"REV_AT_EPOCH":37274,"BSTAR":0.00059624,"MEAN_MOTION_DOT":0.00044529,"MEAN_MOTION_DDOT":0},{"OBJECT_NAME":"TIMED","OBJECT_ID":"2001-055B","EPOCH":"2026-03-02T11:39:31.245984","MEAN_MOTION":14.94995763,"ECCENTRICITY":0.00029299,"INCLINATION":74.066,"RA_OF_ASC_NODE":89.8202,"ARG_OF_PERICENTER":283.7118,"MEAN_ANOMALY":76.3741,"EPHEMERIS_TYPE":0,"CLASSIFICATION_TYPE":"U","NORAD_CAT_ID":26998,"ELEMENT_SET_NO":999,"REV_AT_EPOCH":31487,"BSTAR":0.00015099915,"MEAN_MOTION_DOT":1.612e-5,"MEAN_MOTION_DDOT":0},{"OBJECT_NAME":"CORIOLIS","OBJECT_ID":"2003-001A","EPOCH":"2026-03-02T13:58:48.655776","MEAN_MOTION":14.19909497,"ECCENTRICITY":0.0014453,"INCLINATION":98.716,"RA_OF_ASC_NODE":70.0832,"ARG_OF_PERICENTER":156.0865,"MEAN_ANOMALY":204.0985,"EPHEMERIS_TYPE":0,"CLASSIFICATION_TYPE":"U","NORAD_CAT_ID":27640,"ELEMENT_SET_NO":999,"REV_AT_EPOCH":19909,"BSTAR":0.00010414,"MEAN_MOTION_DOT":1.78e-6,"MEAN_MOTION_DDOT":0},{"OBJECT_NAME":"SORCE","OBJECT_ID":"2003-004A","EPOCH":"2026-03-02T15:44:59.919648","MEAN_MOTION":15.03033305,"ECCENTRICITY":0.0016843,"INCLINATION":39.9904,"RA_OF_ASC_NODE":149.189,"ARG_OF_PERICENTER":2.4266,"MEAN_ANOMALY":357.6607,"EPHEMERIS_TYPE":0,"CLASSIFICATION_TYPE":"U","NORAD_CAT_ID":27651,"ELEMENT_SET_NO":999,"REV_AT_EPOCH":25586,"BSTAR":0.00034049,"MEAN_MOTION_DOT":4.531e-5,"MEAN_MOTION_DDOT":0},{"OBJECT_NAME":"MOST","OBJECT_ID":"2003-031D","EPOCH":"2026-03-02T15:06:51.708960","MEAN_MOTION":14.21296936,"ECCENTRICITY":0.0009542,"INCLINATION":98.7081,"RA_OF_ASC_NODE":70.8286,"ARG_OF_PERICENTER":193.9657,"MEAN_ANOMALY":166.1258,"EPHEMERIS_TYPE":0,"CLASSIFICATION_TYPE":"U","NORAD_CAT_ID":27843,"ELEMENT_SET_NO":999,"REV_AT_EPOCH":17557,"BSTAR":7.0153e-5,"MEAN_MOTION_DOT":1.09e-6,"MEAN_MOTION_DDOT":0},{"OBJECT_NAME":"SCISAT 1","OBJECT_ID":"2003-036A","EPOCH":"2026-03-02T14:12:02.458368","MEAN_MOTION":14.81294228,"ECCENTRICITY":0.0005912,"INCLINATION":73.9312,"RA_OF_ASC_NODE":23.1119,"ARG_OF_PERICENTER":117.8675,"MEAN_ANOMALY":242.3101,"EPHEMERIS_TYPE":0,"CLASSIFICATION_TYPE":"U","NORAD_CAT_ID":27858,"ELEMENT_SET_NO":999,"REV_AT_EPOCH":21566,"BSTAR":0.00015391,"MEAN_MOTION_DOT":1.165e-5,"MEAN_MOTION_DDOT":0},{"OBJECT_NAME":"SWIFT","OBJECT_ID":"2004-047A","EPOCH":"2026-03-02T16:45:37.561824","MEAN_MOTION":15.58589795,"ECCENTRICITY":0.0002913,"INCLINATION":20.553,"RA_OF_ASC_NODE":280.3797,"ARG_OF_PERICENTER":300.54,"MEAN_ANOMALY":59.4756,"EPHEMERIS_TYPE":0,"CLASSIFICATION_TYPE":"U","NORAD_CAT_ID":28485,"ELEMENT_SET_NO":999,"REV_AT_EPOCH":17017,"BSTAR":0.00055791,"MEAN_MOTION_DOT":0.00045631,"MEAN_MOTION_DDOT":0},{"OBJECT_NAME":"HINODE (SOLAR-B)","OBJECT_ID":"2006-041A","EPOCH":"2026-03-02T14:54:47.042784","MEAN_MOTION":14.68460178,"ECCENTRICITY":0.0016116,"INCLINATION":98.0629,"RA_OF_ASC_NODE":79.3187,"ARG_OF_PERICENTER":265.8222,"MEAN_ANOMALY":94.1141,"EPHEMERIS_TYPE":0,"CLASSIFICATION_TYPE":"U","NORAD_CAT_ID":29479,"ELEMENT_SET_NO":999,"REV_AT_EPOCH":3923,"BSTAR":0.0001559,"MEAN_MOTION_DOT":8.55e-6,"MEAN_MOTION_DDOT":0},{"OBJECT_NAME":"SHIJIAN-6 02A (SJ-6 02A)","OBJECT_ID":"2006-046A","EPOCH":"2026-03-02T20:17:12.111648","MEAN_MOTION":15.15575496,"ECCENTRICITY":0.000426,"INCLINATION":97.6513,"RA_OF_ASC_NODE":102.1379,"ARG_OF_PERICENTER":130.5612,"MEAN_ANOMALY":229.5992,"EPHEMERIS_TYPE":0,"CLASSIFICATION_TYPE":"U","NORAD_CAT_ID":29505,"ELEMENT_SET_NO":999,"REV_AT_EPOCH":5615,"BSTAR":0.00034777,"MEAN_MOTION_DOT":6.534e-5,"MEAN_MOTION_DDOT":0}]
